[{"OBJECT_NAME":"STARLINK-3611","OBJECT_ID":"2022-017M","EPOCH":"2026-03-09T22:09:57.337056","MEAN_MOTION":15.08840163,"ECCENTRICITY":0.000154,"INCLINATION":53.2195,"RA_OF_ASC_NODE":338.122,"ARG_OF_PERICENTER":104.4617,"MEAN_ANOMALY":255.6546,"EPHEMERIS_TYPE":0,"CLASSIFICATION_TYPE":"U","NORAD_CAT_ID":51779,"ELEMENT_SET_NO":999,"REV_AT_EPOCH":22260,"BSTAR":-1.240361e-6,"MEAN_MOTION_DOT":-3.08e-6,"MEAN_MOTION_DDOT":0},{"OBJECT_NAME":"FENGYUN 1C DEB","OBJECT_ID":"1999-025EEQ","EPOCH":"2026-03-04T07:32:44.635200","MEAN_MOTION":14.50858155,"ECCENTRICITY":0.02656951,"INCLINATION":98.9728,"RA_OF_ASC_NODE":96.1117,"ARG_OF_PERICENTER":260.4903,"MEAN_ANOMALY":96.6174,"EPHEMERIS_TYPE":0,"CLASSIFICATION_TYPE":"U","NORAD_CAT_ID":37056,"ELEMENT_SET_NO":999,"REV_AT_EPOCH":66594,"BSTAR":0.00041717467,"MEAN_MOTION_DOT":2.532e-5,"MEAN_MOTION_DDOT":0}]
